{"type": "FeatureCollection", "features": [ {"type": "Feature", "properties": {"norad_id": 37065, "name": "FENGYUN 1C DEB", "group": "fengyun-1c-debris", "lat": 29.02537664198712, "lon": -24.12589376419841, "alt_km": 1118.9417371015716, "timestamp": "2025-12-02T23:34:15.805303+00:00", "meta": {"OBJECT_NAME": "FENGYUN 1C DEB", "OBJECT_ID": "1999-025EEZ", "EPOCH": "2025-11-29T04:41:54.899520", "MEAN_MOTION": 13.59013412, "ECCENTRICITY": 0.0298251, "INCLINATION": 103.2865, "RA_OF_ASC_NODE": 143.2258, "ARG_OF_PERICENTER": 271.3733, "MEAN_ANOMALY": 85.3247, "EPHEMERIS_TYPE": 0, "CLASSIFICATION_TYPE": "U", "NORAD_CAT_ID": 37065, "ELEMENT_SET_NO": 999, "REV_AT_EPOCH": 22018, "BSTAR": 0.0027486644, "MEAN_MOTION_DOT": 2.63e-05, "MEAN_MOTION_DDOT": 0}, "tle": {"line1": "1 37065U 99025EEZ 25333.19577430  .00002630  00000+0  27487-2 0  9998", "line2": "2 37065 103.2865 143.2258 0298251 271.3733  85.3247 13.59013412220187"}}, "geometry": {"type": "Point", "coordinates": [-24.12589376419841, 29.02537664198712]}}, {"type": "Feature", "properties": {"norad_id": 37067, "name": "FENGYUN 1C DEB", "group": "fengyun-1c-debris", "lat": -43.10266704705872, "lon": -72.82366979476822, "alt_km": 1012.0160663493461, "timestamp": "2025-12-02T23:34:15.805313+00:00", "meta": {"OBJECT_NAME": "FENGYUN 1C DEB", "OBJECT_ID": "1999-025EFB", "EPOCH": "2025-12-01T01:28:45.685632", "MEAN_MOTION": 14.00126048, "ECCENTRICITY": 0.01543927, "INCLINATION": 99.5381, "RA_OF_ASC_NODE": 276.1211, "ARG_OF_PERICENTER": 143.8371, "MEAN_ANOMALY": 217.3351, "EPHEMERIS_TYPE": 0, "CLASSIFICATION_TYPE": "U", "NORAD_CAT_ID": 37067, "ELEMENT_SET_NO": 999, "REV_AT_EPOCH": 57245, "BSTAR": 0.0033441355, "MEAN_MOTION_DOT": 5.422e-05, "MEAN_MOTION_DDOT": 0}, "tle": {"line1": "1 37067U 99025EFB 25335.06163988  .00005422  00000+0  33441-2 0  9996", "line2": "2 37067  99.5381 276.1211 0154392 143.8371 217.3351 14.00126048572452"}}, "geometry": {"type": "Point", "coordinates": [-72.82366979476822, -43.10266704705872]}}, {"type": "Feature", "properties": {"norad_id": 37069, "name": "FENGYUN 1C DEB", "group": "fengyun-1c-debris", "lat": -43.83215728033777, "lon": 125.84466771613678, "alt_km": 948.51637466594, "timestamp": "2025-12-02T23:34:15.805323+00:00", "meta": {"OBJECT_NAME": "FENGYUN 1C DEB", "OBJECT_ID": "1999-025EFD", "EPOCH": "2025-11-28T16:06:15.972480", "MEAN_MOTION": 13.37875406, "ECCENTRICITY": 0.0426586, "INCLINATION": 95.8475, "RA_OF_ASC_NODE": 308.9975, "ARG_OF_PERICENTER": 294.4722, "MEAN_ANOMALY": 61.249, "EPHEMERIS_TYPE": 0, "CLASSIFICATION_TYPE": "U", "NORAD_CAT_ID": 37069, "ELEMENT_SET_NO": 999, "REV_AT_EPOCH": 87520, "BSTAR": 0.0036837011, "MEAN_MOTION_DOT": 3.263e-05, "MEAN_MOTION_DDOT": 0}, "tle": {"line1": "1 37069U 99025EFD 25332.67101820  .00003263  00000+0  36837-2 0  9992", "line2": "2 37069  95.8475 308.9975 0426586 294.4722  61.2490 13.37875406875205"}}, "geometry": {"type": "Point", "coordinates": [125.84466771613678, -43.83215728033777]}}, {"type": "Feature", "properties": {"norad_id": 37077, "name": "FENGYUN 1C DEB", "group": "fengyun-1c-debris", "lat": 47.992501085686285, "lon": -118.25985319289242, "alt_km": 797.0406305026618, "timestamp": "2025-12-02T23:34:15.805333+00:00", "meta": {"OBJECT_NAME": "FENGYUN 1C DEB", "OBJECT_ID": "1999-025EFM", "EPOCH": "2025-12-02T11:18:15.684768", "MEAN_MOTION": 14.4115632, "ECCENTRICITY": 0.0095831, "INCLINATION": 99.0357, "RA_OF_ASC_NODE": 51.0236, "ARG_OF_PERICENTER": 359.1614, "MEAN_ANOMALY": 0.9398, "EPHEMERIS_TYPE": 0, "CLASSIFICATION_TYPE": "U", "NORAD_CAT_ID": 37077, "ELEMENT_SET_NO": 999, "REV_AT_EPOCH": 84807, "BSTAR": 0.00043848, "MEAN_MOTION_DOT": 1.441e-05, "MEAN_MOTION_DDOT": 0}, "tle": {"line1": "1 37077U 99025EFM 25336.47101487  .00001441  00000+0  43848-3 0  9999", "line2": "2 37077  99.0357  51.0236 0095831 359.1614   0.9398 14.41156320848074"}}, "geometry": {"type": "Point", "coordinates": [-118.25985319289242, 47.992501085686285]}}, {"type": "Feature", "properties": {"norad_id": 37079, "name": "FENGYUN 1C DEB", "group": "fengyun-1c-debris", "lat": 52.04774712173637, "lon": 99.75050021566403, "alt_km": 695.3385420799823, "timestamp": "2025-12-02T23:34:15.805343+00:00", "meta": {"OBJECT_NAME": "FENGYUN 1C DEB", "OBJECT_ID": "1999-025EFP", "EPOCH": "2025-11-30T15:22:32.780352", "MEAN_MOTION": 14.59173975, "ECCENTRICITY": 0.0013197, "INCLINATION": 98.8577, "RA_OF_ASC_NODE": 108.7874, "ARG_OF_PERICENTER": 180.0517, "MEAN_ANOMALY": 180.0681, "EPHEMERIS_TYPE": 0, "CLASSIFICATION_TYPE": "U", "NORAD_CAT_ID": 37079, "ELEMENT_SET_NO": 999, "REV_AT_EPOCH": 64439, "BSTAR": 0.0040013, "MEAN_MOTION_DOT": 0.00018878, "MEAN_MOTION_DDOT": 0}, "tle": {"line1": "1 37079U 99025EFP 25334.64065718  .00018878  00000+0  40013-2 0  9996", "line2": "2 37079  98.8577 108.7874 0013197 180.0517 180.0681 14.59173975644391"}}, "geometry": {"type": "Point", "coordinates": [99.75050021566403, 52.04774712173637]}}, {"type": "Feature", "properties": {"norad_id": 37081, "name": "FENGYUN 1C DEB", "group": "fengyun-1c-debris", "lat": 54.99538899139355, "lon": 116.85585441524984, "alt_km": 692.2585652950111, "timestamp": "2025-12-02T23:34:15.805353+00:00", "meta": {"OBJECT_NAME": "FENGYUN 1C DEB", "OBJECT_ID": "1999-025EFR", "EPOCH": "2025-11-27T15:55:13.190304", "MEAN_MOTION": 14.13573399, "ECCENTRICITY": 0.02634042, "INCLINATION": 98.7108, "RA_OF_ASC_NODE": 124.314, "ARG_OF_PERICENTER": 31.9618, "MEAN_ANOMALY": 329.7233, "EPHEMERIS_TYPE": 0, "CLASSIFICATION_TYPE": "U", "NORAD_CAT_ID": 37081, "ELEMENT_SET_NO": 999, "REV_AT_EPOCH": 58361, "BSTAR": 0.004071909, "MEAN_MOTION_DOT": 0.00010663, "MEAN_MOTION_DDOT": 0}, "tle": {"line1": "1 37081U 99025EFR 25331.66334711  .00010663  00000+0  40719-2 0  9997", "line2": "2 37081  98.7108 124.3140 0263404  31.9618 329.7233 14.13573399583613"}}, "geometry": {"type": "Point", "coordinates": [116.85585441524984, 54.99538899139355]}}, {"type": "Feature", "properties": {"norad_id": 37400, "name": "FENGYUN 1C DEB", "group": "fengyun-1c-debris", "lat": 25.719096599907374, "lon": -0.4825099858268441, "alt_km": 727.3951708300456, "timestamp": "2025-12-02T23:34:15.805363+00:00", "meta": {"OBJECT_NAME": "FENGYUN 1C DEB", "OBJECT_ID": "1999-025EFS", "EPOCH": "2025-11-30T00:22:53.964768", "MEAN_MOTION": 13.63619747, "ECCENTRICITY": 0.0401354, "INCLINATION": 98.8385, "RA_OF_ASC_NODE": 172.516, "ARG_OF_PERICENTER": 169.9422, "MEAN_ANOMALY": 191.0066, "EPHEMERIS_TYPE": 0, "CLASSIFICATION_TYPE": "U", "NORAD_CAT_ID": 37400, "ELEMENT_SET_NO": 999, "REV_AT_EPOCH": 80020, "BSTAR": 0.00054446719, "MEAN_MOTION_DOT": 7.06e-06, "MEAN_MOTION_DDOT": 0}, "tle": {"line1": "1 37400U 99025EFS 25334.01590237  .00000706  00000+0  54447-3 0  9992", "line2": "2 37400  98.8385 172.5160 0401354 169.9422 191.0066 13.63619747800209"}}, "geometry": {"type": "Point", "coordinates": [-0.4825099858268441, 25.719096599907374]}}, {"type": "Feature", "properties": {"norad_id": 37404, "name": "FENGYUN 1C DEB", "group": "fengyun-1c-debris", "lat": 55.40438084056234, "lon": -32.3651250006731, "alt_km": 803.2740102288617, "timestamp": "2025-12-02T23:34:15.805375+00:00", "meta": {"OBJECT_NAME": "FENGYUN 1C DEB", "OBJECT_ID": "1999-025EFW", "EPOCH": "2025-12-02T12:16:23.572416", "MEAN_MOTION": 14.3158458, "ECCENTRICITY": 0.0044042, "INCLINATION": 98.4521, "RA_OF_ASC_NODE": 339.626, "ARG_OF_PERICENTER": 192.5123, "MEAN_ANOMALY": 319.5533, "EPHEMERIS_TYPE": 0, "CLASSIFICATION_TYPE": "U", "NORAD_CAT_ID": 37404, "ELEMENT_SET_NO": 999, "REV_AT_EPOCH": 82594, "BSTAR": 0.00086842, "MEAN_MOTION_DOT": 2.294e-05, "MEAN_MOTION_DDOT": 0}, "tle": {"line1": "1 37404U 99025EFW 25336.51138394  .00002294  00000+0  86842-3 0  9993", "line2": "2 37404  98.4521 339.6260 0044042 192.5123 319.5533 14.31584580825941"}}, "geometry": {"type": "Point", "coordinates": [-32.3651250006731, 55.40438084056234]}}, {"type": "Feature", "properties": {"norad_id": 37406, "name": "FENGYUN 1C DEB", "group": "fengyun-1c-debris", "lat": -34.5405443547621, "lon": 23.92927866468875, "alt_km": 863.5425897668756, "timestamp": "2025-12-02T23:34:15.805385+00:00", "meta": {"OBJECT_NAME": "FENGYUN 1C DEB", "OBJECT_ID": "1999-025EFY", "EPOCH": "2025-11-30T09:51:26.349696", "MEAN_MOTION": 14.04210326, "ECCENTRICITY": 0.01505151, "INCLINATION": 98.4431, "RA_OF_ASC_NODE": 207.4058, "ARG_OF_PERICENTER": 301.4586, "MEAN_ANOMALY": 243.4646, "EPHEMERIS_TYPE": 0, "CLASSIFICATION_TYPE": "U", "NORAD_CAT_ID": 37406, "ELEMENT_SET_NO": 999, "REV_AT_EPOCH": 63059, "BSTAR": 0.0013349952, "MEAN_MOTION_DOT": 2.303e-05, "MEAN_MOTION_DDOT": 0}, "tle": {"line1": "1 37406U 99025EFY 25334.41072164  .00002303  00000+0  13350-2 0  9998", "line2": "2 37406  98.4431 207.4058 0150515 301.4586 243.4646 14.04210326630596"}}, "geometry": {"type": "Point", "coordinates": [23.92927866468875, -34.5405443547621]}}, {"type": "Feature", "properties": {"norad_id": 37415, "name": "FENGYUN 1C DEB", "group": "fengyun-1c-debris", "lat": -60.79801988695686, "lon": -110.70923567917345, "alt_km": 895.8338286629614, "timestamp": "2025-12-02T23:34:15.805395+00:00", "meta": {"OBJECT_NAME": "FENGYUN 1C DEB", "OBJECT_ID": "1999-025EGH", "EPOCH": "2025-12-02T01:04:00.466176", "MEAN_MOTION": 13.52075679, "ECCENTRICITY": 0.02848718, "INCLINATION": 98.9818, "RA_OF_ASC_NODE": 84.8777, "ARG_OF_PERICENTER": 209.5506, "MEAN_ANOMALY": 148.9269, "EPHEMERIS_TYPE": 0, "CLASSIFICATION_TYPE": "U", "NORAD_CAT_ID": 37415, "ELEMENT_SET_NO": 999, "REV_AT_EPOCH": 62177, "BSTAR": 0.00059758334, "MEAN_MOTION_DOT": 4.68e-06, "MEAN_MOTION_DDOT": 0}, "tle": {"line1": "1 37415U 99025EGH 25336.04444984  .00000468  00000+0  59758-3 0  9995", "line2": "2 37415  98.9818  84.8777 0284871 209.5506 148.9269 13.52075679621770"}}, "geometry": {"type": "Point", "coordinates": [-110.70923567917345, -60.79801988695686]}}]}